IRIDIUM 136             
1 42962U 17061H   24039.49609273  .00000353  00000+0  11892-3 0  9990
2 42962  86.3972  24.5018 0002168  80.3898 279.7543 14.34218408331619
